[{"OBJECT_NAME":"STARLINK-5032","OBJECT_ID":"2022-119K","EPOCH":"2026-03-09T22:34:22.068480","MEAN_MOTION":15.08842187,"ECCENTRICITY":0.00014251,"INCLINATION":53.2174,"RA_OF_ASC_NODE":322.9141,"ARG_OF_PERICENTER":88.6552,"MEAN_ANOMALY":271.4604,"EPHEMERIS_TYPE":0,"CLASSIFICATION_TYPE":"U","NORAD_CAT_ID":53895,"ELEMENT_SET_NO":999,"REV_AT_EPOCH":19172,"BSTAR":9.9434378e-5,"MEAN_MOTION_DOT":1.295e-5,"MEAN_MOTION_DDOT":0},{"OBJECT_NAME":"RAPIDEYE 2","OBJECT_ID":"2008-040A","EPOCH":"2026-03-09T16:28:01.823808","MEAN_MOTION":15.04945954,"ECCENTRICITY":0.00177122,"INCLINATION":97.4373,"RA_OF_ASC_NODE":102.2221,"ARG_OF_PERICENTER":194.2548,"MEAN_ANOMALY":165.8182,"EPHEMERIS_TYPE":0,"CLASSIFICATION_TYPE":"U","NORAD_CAT_ID":33312,"ELEMENT_SET_NO":999,"REV_AT_EPOCH":95100,"BSTAR":0.0001818221,"MEAN_MOTION_DOT":2.525e-5,"MEAN_MOTION_DDOT":0}]
